CCSDS_OMM_VERS = 2.0
CREATION_DATE  = 
ORIGINATOR     = 

OBJECT_NAME    = STARLINK-35844
OBJECT_ID      = 2025-283C
CENTER_NAME    = EARTH
REF_FRAME      = TEME
TIME_SYSTEM    = UTC
MEAN_ELEMENT_THEORY = SGP/SGP4

EPOCH          = 2025-12-23T06:00:00.999648
MEAN_MOTION    = 15.70410077
ECCENTRICITY   = .00011237
INCLINATION    = 53.1592
RA_OF_ASC_NODE = 21.2673
ARG_OF_PERICENTER = 94.6038
MEAN_ANOMALY   = 216.0184

EPHEMERIS_TYPE = 0
CLASSIFICATION_TYPE = U
NORAD_CAT_ID   = 66880
ELEMENT_SET_NO = 999
REV_AT_EPOCH   = 411
BSTAR          = -.17986957E-1
MEAN_MOTION_DOT = -.1981649E-1
MEAN_MOTION_DDOT = 0

CCSDS_OMM_VERS = 2.0
CREATION_DATE  = 
ORIGINATOR     = 

OBJECT_NAME    = STARLINK-35860
OBJECT_ID      = 2025-283D
CENTER_NAME    = EARTH
REF_FRAME      = TEME
TIME_SYSTEM    = UTC
MEAN_ELEMENT_THEORY = SGP/SGP4

EPOCH          = 2025-12-23T06:00:00.999648
MEAN_MOTION    = 15.70408171
ECCENTRICITY   = .00010419
INCLINATION    = 53.1588
RA_OF_ASC_NODE = 21.2588
ARG_OF_PERICENTER = 85.4444
MEAN_ANOMALY   = 229.0127

EPHEMERIS_TYPE = 0
CLASSIFICATION_TYPE = U
NORAD_CAT_ID   = 66881
ELEMENT_SET_NO = 999
REV_AT_EPOCH   = 411
BSTAR          = -.17985314E-1
MEAN_MOTION_DOT = -.1981286E-1
MEAN_MOTION_DDOT = 0

CCSDS_OMM_VERS = 2.0
CREATION_DATE  = 
ORIGINATOR     = 

OBJECT_NAME    = STARLINK-35912
OBJECT_ID      = 2025-283E
CENTER_NAME    = EARTH
REF_FRAME      = TEME
TIME_SYSTEM    = UTC
MEAN_ELEMENT_THEORY = SGP/SGP4

EPOCH          = 2025-12-23T06:00:00.999648
MEAN_MOTION    = 15.70413307
ECCENTRICITY   = .00011711
INCLINATION    = 53.1590
RA_OF_ASC_NODE = 21.2554
ARG_OF_PERICENTER = 86.2318
MEAN_ANOMALY   = 230.1372

EPHEMERIS_TYPE = 0
CLASSIFICATION_TYPE = U
NORAD_CAT_ID   = 66882
ELEMENT_SET_NO = 999
REV_AT_EPOCH   = 411
BSTAR          = -.1801789E-1
MEAN_MOTION_DOT = -.198493E-1
MEAN_MOTION_DDOT = 0

CCSDS_OMM_VERS = 2.0
CREATION_DATE  = 
ORIGINATOR     = 

OBJECT_NAME    = STARLINK-35947
OBJECT_ID      = 2025-283F
CENTER_NAME    = EARTH
REF_FRAME      = TEME
TIME_SYSTEM    = UTC
MEAN_ELEMENT_THEORY = SGP/SGP4

EPOCH          = 2025-12-23T06:00:00.999648
MEAN_MOTION    = 15.70408854
ECCENTRICITY   = .00010727
INCLINATION    = 53.1591
RA_OF_ASC_NODE = 21.2520
ARG_OF_PERICENTER = 90.2612
MEAN_ANOMALY   = 228.0294

EPHEMERIS_TYPE = 0
CLASSIFICATION_TYPE = U
NORAD_CAT_ID   = 66883
ELEMENT_SET_NO = 999
REV_AT_EPOCH   = 416
BSTAR          = -.17980954E-1
MEAN_MOTION_DOT = -.1980936E-1
MEAN_MOTION_DDOT = 0

CCSDS_OMM_VERS = 2.0
CREATION_DATE  = 
ORIGINATOR     = 

OBJECT_NAME    = STARLINK-36057
OBJECT_ID      = 2025-283G
CENTER_NAME    = EARTH
REF_FRAME      = TEME
TIME_SYSTEM    = UTC
MEAN_ELEMENT_THEORY = SGP/SGP4

EPOCH          = 2025-12-23T06:00:00.999648
MEAN_MOTION    = 15.70409990
ECCENTRICITY   = .00010816
INCLINATION    = 53.1588
RA_OF_ASC_NODE = 21.2428
ARG_OF_PERICENTER = 94.2941
MEAN_ANOMALY   = 227.8291

EPHEMERIS_TYPE = 0
CLASSIFICATION_TYPE = U
NORAD_CAT_ID   = 66884
ELEMENT_SET_NO = 999
REV_AT_EPOCH   = 411
BSTAR          = -.17984236E-1
MEAN_MOTION_DOT = -.1981346E-1
MEAN_MOTION_DDOT = 0

CCSDS_OMM_VERS = 2.0
CREATION_DATE  = 
ORIGINATOR     = 

OBJECT_NAME    = STARLINK-35954
OBJECT_ID      = 2025-283H
CENTER_NAME    = EARTH
REF_FRAME      = TEME
TIME_SYSTEM    = UTC
MEAN_ELEMENT_THEORY = SGP/SGP4

EPOCH          = 2025-12-23T06:00:00.999648
MEAN_MOTION    = 15.70410427
ECCENTRICITY   = .00009755
INCLINATION    = 53.1591
RA_OF_ASC_NODE = 21.2468
ARG_OF_PERICENTER = 82.9961
MEAN_ANOMALY   = 237.2109

EPHEMERIS_TYPE = 0
CLASSIFICATION_TYPE = U
NORAD_CAT_ID   = 66885
ELEMENT_SET_NO = 999
REV_AT_EPOCH   = 411
BSTAR          = -.17982985E-1
MEAN_MOTION_DOT = -.1981176E-1
MEAN_MOTION_DDOT = 0

CCSDS_OMM_VERS = 2.0
CREATION_DATE  = 
ORIGINATOR     = 

OBJECT_NAME    = STARLINK-35900
OBJECT_ID      = 2025-283J
CENTER_NAME    = EARTH
REF_FRAME      = TEME
TIME_SYSTEM    = UTC
MEAN_ELEMENT_THEORY = SGP/SGP4

EPOCH          = 2025-12-23T06:00:00.999648
MEAN_MOTION    = 15.70341682
ECCENTRICITY   = .00012563
INCLINATION    = 53.1592
RA_OF_ASC_NODE = 21.2386
ARG_OF_PERICENTER = 115.7060
MEAN_ANOMALY   = 208.3861

EPHEMERIS_TYPE = 0
CLASSIFICATION_TYPE = U
NORAD_CAT_ID   = 66886
ELEMENT_SET_NO = 999
REV_AT_EPOCH   = 411
BSTAR          = -.17338855E-1
MEAN_MOTION_DOT = -.1913579E-1
MEAN_MOTION_DDOT = 0

CCSDS_OMM_VERS = 2.0
CREATION_DATE  = 
ORIGINATOR     = 

OBJECT_NAME    = STARLINK-35925
OBJECT_ID      = 2025-283K
CENTER_NAME    = EARTH
REF_FRAME      = TEME
TIME_SYSTEM    = UTC
MEAN_ELEMENT_THEORY = SGP/SGP4

EPOCH          = 2025-12-23T06:00:00.999648
MEAN_MOTION    = 15.70408419
ECCENTRICITY   = .00010504
INCLINATION    = 53.1592
RA_OF_ASC_NODE = 21.2349
ARG_OF_PERICENTER = 87.1056
MEAN_ANOMALY   = 238.8528

EPHEMERIS_TYPE = 0
CLASSIFICATION_TYPE = U
NORAD_CAT_ID   = 66887
ELEMENT_SET_NO = 999
REV_AT_EPOCH   = 411
BSTAR          = -.17975605E-1
MEAN_MOTION_DOT = -.1980367E-1
MEAN_MOTION_DDOT = 0

CCSDS_OMM_VERS = 2.0
CREATION_DATE  = 
ORIGINATOR     = 

OBJECT_NAME    = STARLINK-35919
OBJECT_ID      = 2025-283L
CENTER_NAME    = EARTH
REF_FRAME      = TEME
TIME_SYSTEM    = UTC
MEAN_ELEMENT_THEORY = SGP/SGP4

EPOCH          = 2025-12-23T06:00:00.999648
MEAN_MOTION    = 15.70406902
ECCENTRICITY   = .00010574
INCLINATION    = 53.1593
RA_OF_ASC_NODE = 21.2309
ARG_OF_PERICENTER = 82.2574
MEAN_ANOMALY   = 245.6173

EPHEMERIS_TYPE = 0
CLASSIFICATION_TYPE = U
NORAD_CAT_ID   = 66888
ELEMENT_SET_NO = 999
REV_AT_EPOCH   = 411
BSTAR          = -.17953037E-1
MEAN_MOTION_DOT = -.1978067E-1
MEAN_MOTION_DDOT = 0

CCSDS_OMM_VERS = 2.0
CREATION_DATE  = 
ORIGINATOR     = 

OBJECT_NAME    = STARLINK-35852
OBJECT_ID      = 2025-283M
CENTER_NAME    = EARTH
REF_FRAME      = TEME
TIME_SYSTEM    = UTC
MEAN_ELEMENT_THEORY = SGP/SGP4

EPOCH          = 2025-12-23T06:00:00.999648
MEAN_MOTION    = 15.70410480
ECCENTRICITY   = .0001104
INCLINATION    = 53.1591
RA_OF_ASC_NODE = 21.2260
ARG_OF_PERICENTER = 80.9684
MEAN_ANOMALY   = 248.8210

EPHEMERIS_TYPE = 0
CLASSIFICATION_TYPE = U
NORAD_CAT_ID   = 66889
ELEMENT_SET_NO = 999
REV_AT_EPOCH   = 411
BSTAR          = -.17993378E-1
MEAN_MOTION_DOT = -.1982287E-1
MEAN_MOTION_DDOT = 0

CCSDS_OMM_VERS = 2.0
CREATION_DATE  = 
ORIGINATOR     = 

OBJECT_NAME    = STARLINK-35885
OBJECT_ID      = 2025-283N
CENTER_NAME    = EARTH
REF_FRAME      = TEME
TIME_SYSTEM    = UTC
MEAN_ELEMENT_THEORY = SGP/SGP4

EPOCH          = 2025-12-23T06:00:00.999648
MEAN_MOTION    = 15.70414882
ECCENTRICITY   = .00010549
INCLINATION    = 53.1588
RA_OF_ASC_NODE = 21.2223
ARG_OF_PERICENTER = 92.1653
MEAN_ANOMALY   = 239.5399

EPHEMERIS_TYPE = 0
CLASSIFICATION_TYPE = U
NORAD_CAT_ID   = 66890
ELEMENT_SET_NO = 999
REV_AT_EPOCH   = 411
BSTAR          = -.18046569E-1
MEAN_MOTION_DOT = -.1987741E-1
MEAN_MOTION_DDOT = 0

CCSDS_OMM_VERS = 2.0
CREATION_DATE  = 
ORIGINATOR     = 

OBJECT_NAME    = STARLINK-35855
OBJECT_ID      = 2025-283P
CENTER_NAME    = EARTH
REF_FRAME      = TEME
TIME_SYSTEM    = UTC
MEAN_ELEMENT_THEORY = SGP/SGP4

EPOCH          = 2025-12-23T06:00:00.999648
MEAN_MOTION    = 15.70409724
ECCENTRICITY   = .00010684
INCLINATION    = 53.1589
RA_OF_ASC_NODE = 21.2184
ARG_OF_PERICENTER = 89.0067
MEAN_ANOMALY   = 244.6190

EPHEMERIS_TYPE = 0
CLASSIFICATION_TYPE = U
NORAD_CAT_ID   = 66891
ELEMENT_SET_NO = 999
REV_AT_EPOCH   = 411
BSTAR          = -.17999554E-1
MEAN_MOTION_DOT = -.1982804E-1
MEAN_MOTION_DDOT = 0

