STARLINK-35844          
1 66880U 25283C   25357.25001157 -.01981649  00000+0 -17987-1 0  9993
2 66880  53.1592  21.2673 0001123  94.6038 216.0184 15.70410077  4113
STARLINK-35860          
1 66881U 25283D   25357.25001157 -.01981286  00000+0 -17985-1 0  9999
2 66881  53.1588  21.2588 0001041  85.4444 229.0127 15.70408171  4115
STARLINK-35912          
1 66882U 25283E   25357.25001157 -.01984930  00000+0 -18018-1 0  9997
2 66882  53.1590  21.2554 0001171  86.2318 230.1372 15.70413307  4117
STARLINK-35947          
1 66883U 25283F   25357.25001157 -.01980936  00000+0 -17981-1 0  9998
2 66883  53.1591  21.2520 0001072  90.2612 228.0294 15.70408854  4169
STARLINK-36057          
1 66884U 25283G   25357.25001157 -.01981346  00000+0 -17984-1 0  9998
2 66884  53.1588  21.2428 0001081  94.2941 227.8291 15.70409990  4113
STARLINK-35954          
1 66885U 25283H   25357.25001157 -.01981176  00000+0 -17983-1 0  9999
2 66885  53.1591  21.2468 0000975  82.9961 237.2109 15.70410427  4119
STARLINK-35900          
1 66886U 25283J   25357.25001157 -.01913579  00000+0 -17339-1 0  9997
2 66886  53.1592  21.2386 0001256 115.7060 208.3861 15.70341682  4118
STARLINK-35925          
1 66887U 25283K   25357.25001157 -.01980367  00000+0 -17976-1 0  9994
2 66887  53.1592  21.2349 0001050  87.1056 238.8528 15.70408419  4117
STARLINK-35919          
1 66888U 25283L   25357.25001157 -.01978067  00000+0 -17953-1 0  9994
2 66888  53.1593  21.2309 0001057  82.2574 245.6173 15.70406902  4110
STARLINK-35852          
1 66889U 25283M   25357.25001157 -.01982287  00000+0 -17993-1 0  9998
2 66889  53.1591  21.2260 0001104  80.9684 248.8210 15.70410480  4118
STARLINK-35885          
1 66890U 25283N   25357.25001157 -.01987741  00000+0 -18047-1 0  9991
2 66890  53.1588  21.2223 0001054  92.1653 239.5399 15.70414882  4115
STARLINK-35855          
1 66891U 25283P   25357.25001157 -.01982804  00000+0 -18000-1 0  9996
2 66891  53.1589  21.2184 0001068  89.0067 244.6190 15.70409724  4117
